ONEWEB-0228             
1 48780U 21045P   24125.80194093  .00000018  00000+0  13830-4 0  9994
2 48780  87.9048  53.0798 0001826  82.2559 277.8779 13.15549701143770
